{
    "links": {
        "self": "http://www.neowsapp.com/rest/v1/neo/3739256?api_key=iIulBulltgU6a56xZRHN4H3l9WmuAYTsLGpBGhQ2"
    },
    "id": "3739256",
    "neo_reference_id": "3739256",
    "name": "(2016 AF9)",
    "designation": "2016 AF9",
    "nasa_jpl_url": "http://ssd.jpl.nasa.gov/sbdb.cgi?sstr=3739256",
    "absolute_magnitude_h": 22.2,
    "estimated_diameter": {
        "kilometers": {
            "estimated_diameter_min": 0.096506147,
            "estimated_diameter_max": 0.2157943048
        },
        "meters": {
            "estimated_diameter_min": 96.5061469579,
            "estimated_diameter_max": 215.7943048444
        },
        "miles": {
            "estimated_diameter_min": 0.059966121,
            "estimated_diameter_max": 0.134088323
        },
        "feet": {
            "estimated_diameter_min": 316.6212271853,
            "estimated_diameter_max": 707.9865871058
        }
    },
    "is_potentially_hazardous_asteroid": false,
    "close_approach_data": [
        {
            "close_approach_date": "2015-12-23",
            "close_approach_date_full": "2015-Dec-23 17:24",
            "epoch_date_close_approach": 1450891440000,
            "relative_velocity": {
                "kilometers_per_second": "36.7824812819",
                "kilometers_per_hour": "132416.9326148944",
                "miles_per_hour": "82278.7323795159"
            },
            "miss_distance": {
                "astronomical": "0.0935671522",
                "lunar": "36.3976222058",
                "kilometers": "13997446.671085814",
                "miles": "8697610.0478756732"
            },
            "orbiting_body": "Earth"
        },
        {
            "close_approach_date": "2133-12-08",
            "close_approach_date_full": "2133-Dec-08 09:04",
            "epoch_date_close_approach": 5173319040000,
            "relative_velocity": {
                "kilometers_per_second": "24.0565661678",
                "kilometers_per_hour": "86603.6382041952",
                "miles_per_hour": "53812.1328608234"
            },
            "miss_distance": {
                "astronomical": "0.4230994517",
                "lunar": "164.5856867113",
                "kilometers": "63294776.772487879",
                "miles": "39329550.5509315702"
            },
            "orbiting_body": "Earth"
        }
    ],
    "orbital_data": {
        "orbit_id": "7",
        "orbit_determination_date": "2017-04-06 08:29:25",
        "first_observation_date": "2016-01-01",
        "last_observation_date": "2016-01-14",
        "data_arc_in_days": 13,
        "observations_used": 34,
        "orbit_uncertainty": "8",
        "minimum_orbit_intersection": ".0644903",
        "jupiter_tisserand_invariant": "2.625",
        "epoch_osculation": "2457393.5",
        "eccentricity": ".9023982557310239",
        "semi_major_axis": "2.511248293721125",
        "inclination": "22.65757827143162",
        "ascending_node_longitude": "97.16901123344678",
        "orbital_period": "1453.559817960619",
        "perihelion_distance": ".2451022137596717",
        "perihelion_argument": "224.3270053506477",
        "aphelion_distance": "4.777394373682578",
        "perihelion_time": "2457342.648814436050",
        "mean_anomaly": "12.59420257551311",
        "mean_motion": ".2476678259482221",
        "equinox": "J2000",
        "orbit_class": {
            "orbit_class_type": "APO",
            "orbit_class_description": "Near-Earth asteroid orbits which cross the Earth’s orbit similar to that of 1862 Apollo",
            "orbit_class_range": "a (semi-major axis) > 1.0 AU; q (perihelion) < 1.017 AU"
        }
    },
    "is_sentry_object": false
}